{"type": "FeatureCollection", "features": [ {"type": "Feature", "properties": {"norad_id": 36152, "name": "FENGYUN 1C DEB", "group": "fengyun-1c-debris", "lat": 58.45381436455395, "lon": 13.711080742761522, "alt_km": 862.5176760734148, "timestamp": "2025-12-14T11:29:50.348326+00:00", "meta": {"OBJECT_NAME": "FENGYUN 1C DEB", "OBJECT_ID": "1999-025DRZ", "EPOCH": "2025-12-12T20:14:37.132512", "MEAN_MOTION": 14.17249367, "ECCENTRICITY": 0.00553782, "INCLINATION": 98.7561, "RA_OF_ASC_NODE": 26.6399, "ARG_OF_PERICENTER": 211.6512, "MEAN_ANOMALY": 148.1329, "EPHEMERIS_TYPE": 0, "CLASSIFICATION_TYPE": "U", "NORAD_CAT_ID": 36152, "ELEMENT_SET_NO": 999, "REV_AT_EPOCH": 64158, "BSTAR": 0.0017715524, "MEAN_MOTION_DOT": 3.588e-05, "MEAN_MOTION_DDOT": 0}, "tle": {"line1": "1 36152U 99025DRZ 25346.84348533  .00003588  00000+0  17716-2 0  9997", "line2": "2 36152  98.7561  26.6399 0055378 211.6512 148.1329 14.17249367641582"}}, "geometry": {"type": "Point", "coordinates": [13.711080742761522, 58.45381436455395]}}, {"type": "Feature", "properties": {"norad_id": 36160, "name": "FENGYUN 1C DEB", "group": "fengyun-1c-debris", "lat": -39.0775566817408, "lon": 3.2769051078430915, "alt_km": 823.4987483995537, "timestamp": "2025-12-14T11:29:50.348336+00:00", "meta": {"OBJECT_NAME": "FENGYUN 1C DEB", "OBJECT_ID": "1999-025DSH", "EPOCH": "2025-12-12T19:23:25.399104", "MEAN_MOTION": 14.13217835, "ECCENTRICITY": 0.0135077, "INCLINATION": 98.1387, "RA_OF_ASC_NODE": 188.429, "ARG_OF_PERICENTER": 152.2609, "MEAN_ANOMALY": 208.5855, "EPHEMERIS_TYPE": 0, "CLASSIFICATION_TYPE": "U", "NORAD_CAT_ID": 36160, "ELEMENT_SET_NO": 999, "REV_AT_EPOCH": 60053, "BSTAR": 0.00034837814, "MEAN_MOTION_DOT": 6.74e-06, "MEAN_MOTION_DDOT": 0}, "tle": {"line1": "1 36160U 99025DSH 25346.80793286  .00000674  00000+0  34838-3 0  9999", "line2": "2 36160  98.1387 188.4290 0135077 152.2609 208.5855 14.13217835600536"}}, "geometry": {"type": "Point", "coordinates": [3.2769051078430915, -39.0775566817408]}}, {"type": "Feature", "properties": {"norad_id": 36163, "name": "FENGYUN 1C DEB", "group": "fengyun-1c-debris", "lat": 77.97704872403719, "lon": 61.37712918740772, "alt_km": 665.422033402283, "timestamp": "2025-12-14T11:29:50.348348+00:00", "meta": {"OBJECT_NAME": "FENGYUN 1C DEB", "OBJECT_ID": "1999-025DSL", "EPOCH": "2025-12-13T00:29:29.136768", "MEAN_MOTION": 14.59067364, "ECCENTRICITY": 0.00385289, "INCLINATION": 99.0787, "RA_OF_ASC_NODE": 191.1254, "ARG_OF_PERICENTER": 70.7089, "MEAN_ANOMALY": 289.8269, "EPHEMERIS_TYPE": 0, "CLASSIFICATION_TYPE": "U", "NORAD_CAT_ID": 36163, "ELEMENT_SET_NO": 999, "REV_AT_EPOCH": 89191, "BSTAR": 0.0044174504, "MEAN_MOTION_DOT": 0.00020992, "MEAN_MOTION_DDOT": 0}, "tle": {"line1": "1 36163U 99025DSL 25347.02047612  .00020992  00000+0  44175-2 0  9991", "line2": "2 36163  99.0787 191.1254 0038528  70.7089 289.8269 14.59067364891918"}}, "geometry": {"type": "Point", "coordinates": [61.37712918740772, 77.97704872403719]}}, {"type": "Feature", "properties": {"norad_id": 36167, "name": "FENGYUN 1C DEB", "group": "fengyun-1c-debris", "lat": 48.87663989152221, "lon": 85.96318473491714, "alt_km": 739.2018966742735, "timestamp": "2025-12-14T11:29:50.348359+00:00", "meta": {"OBJECT_NAME": "FENGYUN 1C DEB", "OBJECT_ID": "1999-025DSQ", "EPOCH": "2025-12-11T11:38:30.131808", "MEAN_MOTION": 14.49236898, "ECCENTRICITY": 0.00689441, "INCLINATION": 98.812, "RA_OF_ASC_NODE": 252.6028, "ARG_OF_PERICENTER": 248.2958, "MEAN_ANOMALY": 111.0884, "EPHEMERIS_TYPE": 0, "CLASSIFICATION_TYPE": "U", "NORAD_CAT_ID": 36167, "ELEMENT_SET_NO": 999, "REV_AT_EPOCH": 67261, "BSTAR": 0.0021364842, "MEAN_MOTION_DOT": 8.349e-05, "MEAN_MOTION_DDOT": 0}, "tle": {"line1": "1 36167U 99025DSQ 25345.48507097  .00008349  00000+0  21365-2 0  9999", "line2": "2 36167  98.8120 252.6028 0068944 248.2958 111.0884 14.49236898672616"}}, "geometry": {"type": "Point", "coordinates": [85.96318473491714, 48.87663989152221]}}, {"type": "Feature", "properties": {"norad_id": 36173, "name": "FENGYUN 1C DEB", "group": "fengyun-1c-debris", "lat": 35.77763062484277, "lon": -60.485221737390354, "alt_km": 890.1095158567805, "timestamp": "2025-12-14T11:29:50.348369+00:00", "meta": {"OBJECT_NAME": "FENGYUN 1C DEB", "OBJECT_ID": "1999-025DSW", "EPOCH": "2025-12-13T15:06:11.838816", "MEAN_MOTION": 14.25174988, "ECCENTRICITY": 0.01471409, "INCLINATION": 98.2142, "RA_OF_ASC_NODE": 304.6937, "ARG_OF_PERICENTER": 182.5109, "MEAN_ANOMALY": 177.535, "EPHEMERIS_TYPE": 0, "CLASSIFICATION_TYPE": "U", "NORAD_CAT_ID": 36173, "ELEMENT_SET_NO": 999, "REV_AT_EPOCH": 59103, "BSTAR": 0.00034958587, "MEAN_MOTION_DOT": 8.78e-06, "MEAN_MOTION_DDOT": 0}, "tle": {"line1": "1 36173U 99025DSW 25347.62930369  .00000878  00000+0  34959-3 0  9999", "line2": "2 36173  98.2142 304.6937 0147140 182.5109 177.5350 14.25174988591038"}}, "geometry": {"type": "Point", "coordinates": [-60.485221737390354, 35.77763062484277]}}, {"type": "Feature", "properties": {"norad_id": 36180, "name": "FENGYUN 1C DEB", "group": "fengyun-1c-debris", "lat": -14.76244554214272, "lon": 54.2703277094051, "alt_km": 711.1659171838674, "timestamp": "2025-12-14T11:29:50.348383+00:00", "meta": {"OBJECT_NAME": "FENGYUN 1C DEB", "OBJECT_ID": "1999-025DTD", "EPOCH": "2025-12-05T21:21:22.276224", "MEAN_MOTION": 14.20680074, "ECCENTRICITY": 0.02106275, "INCLINATION": 98.4572, "RA_OF_ASC_NODE": 43.7979, "ARG_OF_PERICENTER": 50.8055, "MEAN_ANOMALY": 311.1621, "EPHEMERIS_TYPE": 0, "CLASSIFICATION_TYPE": "U", "NORAD_CAT_ID": 36180, "ELEMENT_SET_NO": 999, "REV_AT_EPOCH": 70486, "BSTAR": 0.00091841135, "MEAN_MOTION_DOT": 2.432e-05, "MEAN_MOTION_DDOT": 0}, "tle": {"line1": "1 36180U 99025DTD 25339.88984116  .00002432  00000+0  91841-3 0  9996", "line2": "2 36180  98.4572  43.7979 0210627  50.8055 311.1621 14.20680074704867"}}, "geometry": {"type": "Point", "coordinates": [54.2703277094051, -14.76244554214272]}}, {"type": "Feature", "properties": {"norad_id": 36182, "name": "FENGYUN 1C DEB", "group": "fengyun-1c-debris", "lat": -47.05134012963182, "lon": -73.97555048903311, "alt_km": 790.0857964413763, "timestamp": "2025-12-14T11:29:50.348393+00:00", "meta": {"OBJECT_NAME": "FENGYUN 1C DEB", "OBJECT_ID": "1999-025DTF", "EPOCH": "2025-12-12T06:09:38.316672", "MEAN_MOTION": 14.34717961, "ECCENTRICITY": 0.00219109, "INCLINATION": 99.0882, "RA_OF_ASC_NODE": 273.786, "ARG_OF_PERICENTER": 77.1307, "MEAN_ANOMALY": 283.2322, "EPHEMERIS_TYPE": 0, "CLASSIFICATION_TYPE": "U", "NORAD_CAT_ID": 36182, "ELEMENT_SET_NO": 999, "REV_AT_EPOCH": 87950, "BSTAR": 0.002429124, "MEAN_MOTION_DOT": 6.856e-05, "MEAN_MOTION_DDOT": 0}, "tle": {"line1": "1 36182U 99025DTF 25346.25669348  .00006856  00000+0  24291-2 0  9992", "line2": "2 36182  99.0882 273.7860 0021910  77.1307 283.2322 14.34717961879503"}}, "geometry": {"type": "Point", "coordinates": [-73.97555048903311, -47.05134012963182]}}, {"type": "Feature", "properties": {"norad_id": 36186, "name": "FENGYUN 1C DEB", "group": "fengyun-1c-debris", "lat": -53.27388051386553, "lon": -135.64404086270412, "alt_km": 524.0225835023639, "timestamp": "2025-12-14T11:29:50.348403+00:00", "meta": {"OBJECT_NAME": "FENGYUN 1C DEB", "OBJECT_ID": "1999-025DTK", "EPOCH": "2025-12-06T21:01:26.135616", "MEAN_MOTION": 15.09149878, "ECCENTRICITY": 0.00147295, "INCLINATION": 98.9889, "RA_OF_ASC_NODE": 203.1836, "ARG_OF_PERICENTER": 349.9169, "MEAN_ANOMALY": 20.7197, "EPHEMERIS_TYPE": 0, "CLASSIFICATION_TYPE": "U", "NORAD_CAT_ID": 36186, "ELEMENT_SET_NO": 999, "REV_AT_EPOCH": 61482, "BSTAR": 0.015546812, "MEAN_MOTION_DOT": 0.00256087, "MEAN_MOTION_DDOT": 0}, "tle": {"line1": "1 36186U 99025DTK 25340.87599694  .00256087  00000+0  15547-1 0  9990", "line2": "2 36186  98.9889 203.1836 0014729 349.9169  20.7197 15.09149878614823"}}, "geometry": {"type": "Point", "coordinates": [-135.64404086270412, -53.27388051386553]}}, {"type": "Feature", "properties": {"norad_id": 36188, "name": "FENGYUN 1C DEB", "group": "fengyun-1c-debris", "lat": 0.40706325929740705, "lon": -90.97405126691325, "alt_km": 710.3319940998335, "timestamp": "2025-12-14T11:29:50.348415+00:00", "meta": {"OBJECT_NAME": "FENGYUN 1C DEB", "OBJECT_ID": "1999-025DTM", "EPOCH": "2025-12-10T17:53:45.757536", "MEAN_MOTION": 14.60603785, "ECCENTRICITY": 0.00476278, "INCLINATION": 98.5851, "RA_OF_ASC_NODE": 85.0962, "ARG_OF_PERICENTER": 310.9096, "MEAN_ANOMALY": 48.7983, "EPHEMERIS_TYPE": 0, "CLASSIFICATION_TYPE": "U", "NORAD_CAT_ID": 36188, "ELEMENT_SET_NO": 999, "REV_AT_EPOCH": 88023, "BSTAR": 0.0038994823, "MEAN_MOTION_DOT": 0.00019263, "MEAN_MOTION_DDOT": 0}, "tle": {"line1": "1 36188U 99025DTM 25344.74566849  .00019263  00000+0  38995-2 0  9994", "line2": "2 36188  98.5851  85.0962 0047627 310.9096  48.7983 14.60603785880238"}}, "geometry": {"type": "Point", "coordinates": [-90.97405126691325, 0.40706325929740705]}}, {"type": "Feature", "properties": {"norad_id": 36198, "name": "FENGYUN 1C DEB", "group": "fengyun-1c-debris", "lat": -66.7257883014593, "lon": 38.40797685788628, "alt_km": 943.8073147314108, "timestamp": "2025-12-14T11:29:50.348425+00:00", "meta": {"OBJECT_NAME": "FENGYUN 1C DEB", "OBJECT_ID": "1999-025DTX", "EPOCH": "2025-12-11T20:43:05.397888", "MEAN_MOTION": 14.07895366, "ECCENTRICITY": 0.0096761, "INCLINATION": 98.6241, "RA_OF_ASC_NODE": 15.2488, "ARG_OF_PERICENTER": 117.8729, "MEAN_ANOMALY": 243.2283, "EPHEMERIS_TYPE": 0, "CLASSIFICATION_TYPE": "U", "NORAD_CAT_ID": 36198, "ELEMENT_SET_NO": 999, "REV_AT_EPOCH": 63575, "BSTAR": 0.0023599, "MEAN_MOTION_DOT": 4.141e-05, "MEAN_MOTION_DDOT": 0}, "tle": {"line1": "1 36198U 99025DTX 25345.86325692  .00004141  00000+0  23599-2 0  9991", "line2": "2 36198  98.6241  15.2488 0096761 117.8729 243.2283 14.07895366635750"}}, "geometry": {"type": "Point", "coordinates": [38.40797685788628, -66.7257883014593]}}]}